OBJECT_NAME,OBJECT_ID,EPOCH,MEAN_MOTION,ECCENTRICITY,INCLINATION,RA_OF_ASC_NODE,ARG_OF_PERICENTER,MEAN_ANOMALY,EPHEMERIS_TYPE,CLASSIFICATION_TYPE,NORAD_CAT_ID,ELEMENT_SET_NO,REV_AT_EPOCH,BSTAR,MEAN_MOTION_DOT,MEAN_MOTION_DDOT
STARLINK-33823,2025-083AD,2025-05-06T22:53:27.056832,15.86959458,.0001968,42.9998,304.6508,273.8444,86.2204,0,U,63661,999,310,-.21338E-3,-.57185E-3,0
TIANLIAN 2-05,2025-084A,2025-04-27T21:37:19.144992,2.28021945,.7305058,27.1335,91.6460,179.5024,182.3964,0,U,63662,999,1,.12198E-2,.1731E-3,.21908E-6
STARLINK-11651 [DTC],2025-085A,2025-05-07T22:00:01.999584,15.81583289,.0001889,43.0069,325.0884,272.5275,28.5678,0,U,63664,999,212,-.56403E-2,-.1033469E-1,0
STARLINK-11672 [DTC],2025-085B,2025-05-07T22:00:01.999584,15.83950672,.0001727,43.0069,325.0654,264.7393,45.5284,0,U,63665,999,271,-.48836E-2,-.1005081E-1,0
STARLINK-11664 [DTC],2025-085C,2025-05-07T22:00:01.999584,15.84736881,.0002261,43.0068,325.0585,271.1167,41.9025,0,U,63666,999,212,.13839E-3,.32724E-3,0
STARLINK-11666 [DTC],2025-085D,2025-05-08T06:00:02.000160,15.84782206,.0002247,43.0068,322.9970,266.3939,153.5539,0,U,63667,999,206,-.25673E-3,-.61777E-3,0
STARLINK-11663 [DTC],2025-085E,2025-05-07T22:00:01.999584,15.84742859,.000164,43.0069,325.0446,259.7078,58.7108,0,U,63668,999,212,.74572E-4,.17348E-3,0
STARLINK-11595 [DTC],2025-085F,2025-05-08T06:00:02.000160,15.84779949,.000191,43.0069,322.9855,266.5860,158.0234,0,U,63669,999,281,-.24084E-3,-.58002E-3,0
STARLINK-11599 [DTC],2025-085G,2025-05-07T22:00:01.999584,15.84767608,.0001537,43.0069,325.0332,228.4788,94.6740,0,U,63670,999,212,-.8666E-4,-.21301E-3,0
STARLINK-11603 [DTC],2025-085H,2025-05-07T22:00:01.999584,15.84788094,.0001299,43.0069,325.0257,259.0406,66.9967,0,U,63671,999,212,-.19119E-3,-.46234E-3,0
STARLINK-11644 [DTC],2025-085J,2025-05-08T06:00:02.000160,15.84779800,.0001433,43.0069,322.9666,266.1005,166.0294,0,U,63672,999,217,-.2425E-3,-.5839E-3,0
STARLINK-11634 [DTC],2025-085K,2025-05-08T06:00:02.000160,15.84783471,.0001736,43.0061,322.9582,266.9993,167.8296,0,U,63673,999,216,-.26793E-3,-.64425E-3,0
STARLINK-11656 [DTC],2025-085L,2025-05-08T06:00:02.000160,15.84791590,.0001847,43.0070,322.9523,238.9841,198.8905,0,U,63674,999,216,-.29769E-3,-.71492E-3,0
STARLINK-11655 [DTC],2025-085M,2025-05-08T06:00:02.000160,15.84780602,.0001685,43.0061,322.9428,265.1646,175.9188,0,U,63675,999,217,-.22214E-3,-.53568E-3,0
STARLINK-11661 [DTC],2025-085N,2025-05-07T22:00:01.999584,15.84740816,.0001729,43.0070,324.9902,240.7262,99.4858,0,U,63676,999,276,.24617E-3,.58829E-3,0
STARLINK-33816,2025-085P,2025-05-07T22:00:01.999584,15.82401848,.0001635,43.0070,324.9956,263.3572,74.2299,0,U,63677,999,213,-.56748E-2,-.1094249E-1,0
STARLINK-33861,2025-085Q,2025-05-07T22:00:01.999584,15.82429923,.0001851,43.0067,324.9913,273.8884,65.3919,0,U,63678,999,202,-.566E-2,-.1093094E-1,0
STARLINK-33850,2025-085R,2025-05-07T22:00:01.999584,15.82446047,.0001792,43.0068,324.9862,273.8080,67.6018,0,U,63679,999,202,-.57282E-2,-.1105669E-1,0
STARLINK-33887,2025-085S,2025-05-07T22:00:01.999584,15.82460045,.0001683,43.0069,324.9805,264.3241,79.3395,0,U,63680,999,208,-.58227E-2,-.1122654E-1,0
STARLINK-33886,2025-085T,2025-05-07T22:00:01.999584,15.82472784,.0001708,43.0069,324.9751,260.6706,85.1455,0,U,63681,999,202,-.587E-2,-.1131457E-1,0
STARLINK-33840,2025-085U,2025-05-07T22:00:01.999584,15.82496469,.000171,43.0067,324.9639,273.0708,76.9224,0,U,63682,999,202,-.59229E-2,-.114174E-1,0
STARLINK-33851,2025-085V,2025-05-07T22:00:01.999584,15.82495650,.000157,43.0067,324.9699,263.0213,84.7135,0,U,63683,999,202,-.58983E-2,-.113738E-1,0
STARLINK-33853,2025-085W,2025-05-08T06:00:02.000160,15.81703285,.0001599,43.0067,322.9128,263.9293,189.0757,0,U,63684,999,207,-.65843E-2,-.1213399E-1,0
STARLINK-33847,2025-085X,2025-05-08T06:00:02.000160,15.81704848,.0001686,43.0068,322.9017,270.8376,186.6427,0,U,63685,999,207,-.67282E-2,-.1237009E-1,0
STARLINK-33880,2025-085Y,2025-05-08T06:00:02.000160,15.81703297,.0001588,43.0067,322.9068,263.3451,191.9293,0,U,63686,999,218,-.66598E-2,-.1225727E-1,0
HULIANWANG DIGUI A,2025-086A,2025-05-07T21:55:34.310784,13.40523408,.0011513,86.5010,89.7336,280.5159,79.4686,0,U,63687,999,121,.18479E-3,.116E-5,0
HULIANWANG DIGUI B,2025-086B,2025-05-08T04:57:56.871936,13.41298283,.0008348,86.5039,89.6288,269.1201,90.8986,0,U,63688,999,123,.22774E-3,.142E-5,0
HULIANWANG DIGUI C,2025-086C,2025-05-07T21:48:47.116224,13.41242225,.0009444,86.5005,89.7307,266.0066,93.9998,0,U,63689,999,119,.1905E-3,.121E-5,0
HULIANWANG DIGUI D,2025-086D,2025-05-07T21:49:22.088352,13.41181602,.0008943,86.5045,89.7350,269.3822,90.6297,0,U,63690,999,119,.19621E-3,.124E-5,0
